{
  "type": "FeatureCollection",
  "features": [
    {
      "type": "Feature",
      "properties": {
        "norad_id": 31433,
        "name": "FENGYUN 1C DEB",
        "group": "fengyun-1c-debris",
        "lat": -34.36456397473536,
        "lon": -108.66532779288981,
        "alt_km": 797.8702793062967,
        "timestamp": "2025-12-07T20:38:14.345984+00:00",
        "meta_object_name": "FENGYUN 1C DEB",
        "meta_object_id": "1999-025BTV",
        "meta_epoch": "2025-12-06T16:28:16.130784",
        "meta_mean_motion": 14.25320698,
        "meta_eccentricity": 0.01002142,
        "meta_inclination": 98.4103,
        "meta_ra_of_asc_node": 244.4029,
        "meta_arg_of_pericenter": 46.7624,
        "meta_mean_anomaly": 21.1859,
        "meta_ephemeris_type": 0,
        "meta_classification_type": "U",
        "meta_norad_cat_id": 31433,
        "meta_element_set_no": 999,
        "meta_rev_at_epoch": 95466,
        "meta_bstar": 0.00407064,
        "meta_mean_motion_dot": 0.00010075,
        "meta_mean_motion_ddot": 0,
        "tle_line1": "1 31433U 99025BTV 25340.68629781  .00010075  00000+0  40706-2 0  9991",
        "tle_line2": "2 31433  98.4103 244.4029 0100214  46.7624  21.1859 14.25320698954669"
      },
      "geometry": {
        "type": "Point",
        "coordinates": [
          -108.66532779288981,
          -34.36456397473536
        ]
      }
    },
    {
      "type": "Feature",
      "properties": {
        "norad_id": 31435,
        "name": "FENGYUN 1C DEB",
        "group": "fengyun-1c-debris",
        "lat": -80.57859390157238,
        "lon": -133.1398501556649,
        "alt_km": 698.2627442502735,
        "timestamp": "2025-12-07T20:38:14.345994+00:00",
        "meta_object_name": "FENGYUN 1C DEB",
        "meta_object_id": "1999-025BTX",
        "meta_epoch": "2025-12-06T07:02:32.288064",
        "meta_mean_motion": 14.53410132,
        "meta_eccentricity": 0.01488015,
        "meta_inclination": 99.0367,
        "meta_ra_of_asc_node": 151.6154,
        "meta_arg_of_pericenter": 199.443,
        "meta_mean_anomaly": 160.1051,
        "meta_ephemeris_type": 0,
        "meta_classification_type": "U",
        "meta_norad_cat_id": 31435,
        "meta_element_set_no": 999,
        "meta_rev_at_epoch": 98279,
        "meta_bstar": 0.00053818151,
        "meta_mean_motion_dot": 2.533e-05,
        "meta_mean_motion_ddot": 0,
        "tle_line1": "1 31435U 99025BTX 25340.29342926  .00002533  00000+0  53818-3 0  9992",
        "tle_line2": "2 31435  99.0367 151.6154 0148801 199.4430 160.1051 14.53410132982790"
      },
      "geometry": {
        "type": "Point",
        "coordinates": [
          -133.1398501556649,
          -80.57859390157238
        ]
      }
    },
    {
      "type": "Feature",
      "properties": {
        "norad_id": 31436,
        "name": "FENGYUN 1C DEB",
        "group": "fengyun-1c-debris",
        "lat": -63.95001126132936,
        "lon": -4.476891845977556,
        "alt_km": 565.5472235167508,
        "timestamp": "2025-12-07T20:38:14.346004+00:00",
        "meta_object_name": "FENGYUN 1C DEB",
        "meta_object_id": "1999-025BTY",
        "meta_epoch": "2025-12-06T02:23:44.708064",
        "meta_mean_motion": 14.92654097,
        "meta_eccentricity": 0.00449945,
        "meta_inclination": 98.8807,
        "meta_ra_of_asc_node": 192.1942,
        "meta_arg_of_pericenter": 264.2723,
        "meta_mean_anomaly": 248.1873,
        "meta_ephemeris_type": 0,
        "meta_classification_type": "U",
        "meta_norad_cat_id": 31436,
        "meta_element_set_no": 999,
        "meta_rev_at_epoch": 96777,
        "meta_bstar": 0.0074532814,
        "meta_mean_motion_dot": 0.00079082,
        "meta_mean_motion_ddot": 0,
        "tle_line1": "1 31436U 99025BTY 25340.09982301  .00079082  00000+0  74533-2 0  9997",
        "tle_line2": "2 31436  98.8807 192.1942 0044994 264.2723 248.1873 14.92654097967779"
      },
      "geometry": {
        "type": "Point",
        "coordinates": [
          -4.476891845977556,
          -63.95001126132936
        ]
      }
    },
    {
      "type": "Feature",
      "properties": {
        "norad_id": 31437,
        "name": "FENGYUN 1C DEB",
        "group": "fengyun-1c-debris",
        "lat": -64.52998737092219,
        "lon": 81.8647397290612,
        "alt_km": 749.0552053731544,
        "timestamp": "2025-12-07T20:38:14.346014+00:00",
        "meta_object_name": "FENGYUN 1C DEB",
        "meta_object_id": "1999-025BTZ",
        "meta_epoch": "2025-12-03T03:43:35.676192",
        "meta_mean_motion": 14.42268403,
        "meta_eccentricity": 0.00147172,
        "meta_inclination": 98.8658,
        "meta_ra_of_asc_node": 57.8503,
        "meta_arg_of_pericenter": 275.1536,
        "meta_mean_anomaly": 84.7972,
        "meta_ephemeris_type": 0,
        "meta_classification_type": "U",
        "meta_norad_cat_id": 31437,
        "meta_element_set_no": 999,
        "meta_rev_at_epoch": 96372,
        "meta_bstar": 0.0031577834,
        "meta_mean_motion_dot": 0.00010397,
        "meta_mean_motion_ddot": 0,
        "tle_line1": "1 31437U 99025BTZ 25337.15527403  .00010397  00000+0  31578-2 0  9995",
        "tle_line2": "2 31437  98.8658  57.8503 0014717 275.1536  84.7972 14.42268403963729"
      },
      "geometry": {
        "type": "Point",
        "coordinates": [
          81.8647397290612,
          -64.52998737092219
        ]
      }
    },
    {
      "type": "Feature",
      "properties": {
        "norad_id": 31439,
        "name": "FENGYUN 1C DEB",
        "group": "fengyun-1c-debris",
        "lat": -3.8985501531130256,
        "lon": 167.42762277819887,
        "alt_km": 813.318117634235,
        "timestamp": "2025-12-07T20:38:14.346024+00:00",
        "meta_object_name": "FENGYUN 1C DEB",
        "meta_object_id": "1999-025BUB",
        "meta_epoch": "2025-12-07T06:18:04.055616",
        "meta_mean_motion": 13.95565383,
        "meta_eccentricity": 0.0137679,
        "meta_inclination": 98.917,
        "meta_ra_of_asc_node": 347.4626,
        "meta_arg_of_pericenter": 176.8134,
        "meta_mean_anomaly": 247.3568,
        "meta_ephemeris_type": 0,
        "meta_classification_type": "U",
        "meta_norad_cat_id": 31439,
        "meta_element_set_no": 999,
        "meta_rev_at_epoch": 63156,
        "meta_bstar": 0.0011697783,
        "meta_mean_motion_dot": 1.68e-05,
        "meta_mean_motion_ddot": 0,
        "tle_line1": "1 31439U 99025BUB 25341.26254694  .00001680  00000+0  11698-2 0  9999",
        "tle_line2": "2 31439  98.9170 347.4626 0137679 176.8134 247.3568 13.95565383631565"
      },
      "geometry": {
        "type": "Point",
        "coordinates": [
          167.42762277819887,
          -3.8985501531130256
        ]
      }
    },
    {
      "type": "Feature",
      "properties": {
        "norad_id": 31440,
        "name": "FENGYUN 1C DEB",
        "group": "fengyun-1c-debris",
        "lat": 54.994334513626804,
        "lon": -97.51939436224181,
        "alt_km": 779.8797590663726,
        "timestamp": "2025-12-07T20:38:14.346034+00:00",
        "meta_object_name": "FENGYUN 1C DEB",
        "meta_object_id": "1999-025BUC",
        "meta_epoch": "2025-12-05T04:32:40.273728",
        "meta_mean_motion": 14.36571049,
        "meta_eccentricity": 0.00367226,
        "meta_inclination": 98.7465,
        "meta_ra_of_asc_node": 67.0707,
        "meta_arg_of_pericenter": 5.5428,
        "meta_mean_anomaly": 354.6157,
        "meta_ephemeris_type": 0,
        "meta_classification_type": "U",
        "meta_norad_cat_id": 31440,
        "meta_element_set_no": 999,
        "meta_rev_at_epoch": 96217,
        "meta_bstar": 0.0037851683,
        "meta_mean_motion_dot": 0.00011182,
        "meta_mean_motion_ddot": 0,
        "tle_line1": "1 31440U 99025BUC 25339.18935502  .00011182  00000+0  37852-2 0  9991",
        "tle_line2": "2 31440  98.7465  67.0707 0036722   5.5428 354.6157 14.36571049962170"
      },
      "geometry": {
        "type": "Point",
        "coordinates": [
          -97.51939436224181,
          54.994334513626804
        ]
      }
    },
    {
      "type": "Feature",
      "properties": {
        "norad_id": 31441,
        "name": "FENGYUN 1C DEB",
        "group": "fengyun-1c-debris",
        "lat": 11.813525929909279,
        "lon": 25.90971841261634,
        "alt_km": 721.4024711255224,
        "timestamp": "2025-12-07T20:38:14.346044+00:00",
        "meta_object_name": "FENGYUN 1C DEB",
        "meta_object_id": "1999-025BUD",
        "meta_epoch": "2025-12-06T21:04:40.996992",
        "meta_mean_motion": 14.74487968,
        "meta_eccentricity": 0.01051845,
        "meta_inclination": 99.3121,
        "meta_ra_of_asc_node": 202.8157,
        "meta_arg_of_pericenter": 353.4438,
        "meta_mean_anomaly": 6.5384,
        "meta_ephemeris_type": 0,
        "meta_classification_type": "U",
        "meta_norad_cat_id": 31441,
        "meta_element_set_no": 999,
        "meta_rev_at_epoch": 64004,
        "meta_bstar": 0.0091329627,
        "meta_mean_motion_dot": 0.00066898,
        "meta_mean_motion_ddot": 0,
        "tle_line1": "1 31441U 99025BUD 25340.87825228  .00066898  00000+0  91330-2 0  9998",
        "tle_line2": "2 31441  99.3121 202.8157 0105184 353.4438   6.5384 14.74487968640042"
      },
      "geometry": {
        "type": "Point",
        "coordinates": [
          25.90971841261634,
          11.813525929909279
        ]
      }
    }
  ]
}